*******************************************************************************
Ephemeris / WWW_USER Tue Mar 11 05:33:40 2025 Pasadena, USA      / Horizons    
*******************************************************************************
Target body name: (2018 WV1)                      {source: JPL#17}
Center body name: Earth (399)                     {source: DE441}
Center-site name: Gemini South Obs., Cerro Pachon
*******************************************************************************
Start time      : A.D. 2018-Aug-14 22:26:00.0000 UT      
Stop  time      : A.D. 2018-Aug-15 11:08:00.0000 UT      
Step-size       : 1 minutes
*******************************************************************************
Target pole/equ : undefined
Target radii    : undefined                                                    
Center geodetic : 289.2634, -30.2406227, 2.71233  {E-lon(deg),Lat(deg),Alt(km)}
Center cylindric: 289.2634,5517.21435,-3194.81213 {E-lon(deg),Dxy(km),Dz(km)}
Center pole/equ : ITRF93                          {East-longitude positive}
Center radii    : 6378.137, 6378.137, 6356.752 km {Equator_a, b, pole_c}       
Target primary  : Sun
Vis. interferer : MOON (R_eq= 1737.400) km        {source: DE441}
Rel. light bend : Sun                             {source: DE441}
Rel. lght bnd GM: 1.3271E+11 km^3/s^2                                          
Small-body perts: Yes                             {source: SB441-N16}
Atmos refraction: NO (AIRLESS)
RA format       : HMS
Time format     : CAL 
Calendar mode   : Mixed Julian/Gregorian
RTS-only print  : NO       
EOP file        : eop.250310.p250606                                           
EOP coverage    : DATA-BASED 1962-JAN-20 TO 2025-MAR-10. PREDICTS-> 2025-JUN-05
Units conversion: 1 au= 149597870.700 km, c= 299792.458 km/s, 1 day= 86400.0 s 
Table cut-offs 1: Elevation (-90.0deg=NO ),Airmass (>38.000=NO), Daylight (YES)
Table cut-offs 2: Solar elongation (  0.0,180.0=NO ),Local Hour Angle( 0.0=NO )
Table cut-offs 3: RA/DEC angular rate (     0.0=NO )                           
*******************************************************************************
Initial IAU76/J2000 heliocentric ecliptic osculating elements (au, days, deg.):
  EPOCH=  2458458.5 ! 2018-Dec-06.00 (TDB)         Residual RMS= .12928        
   EC= .06869100257422787  QR= .9715505345748198   TP= 2458416.866413563       
   OM= 248.5061090469913   W=  141.3742304527303   IN= 1.905403987972275       
  Equivalent ICRF heliocentric cartesian coordinates (au, au/d):
   X= 2.787163119783287E-01  Y= 8.719775267121872E-01  Z= 3.748421051204766E-01
  VX=-1.676682657337402E-02 VY= 5.516972965834891E-03 VZ= 1.749720915605096E-03
Asteroid physical parameters (km, seconds, rotational period in hours):        
   GM= n.a.                RAD= n.a.               ROTPER= n.a.                
   H= 30.3                 G= .150                 B-V= n.a.                   
                           ALBEDO= n.a.            STYP= n.a.                  
*******************************************************************************
 Date__(UT)__HR:MN     R.A._________(ICRF)_________DEC
******************************************************
$$SOE
 2018-Aug-15 02:32     00 59 44.590443 +09 34 29.50717
 2018-Aug-15 02:33     00 59 44.660229 +09 34 30.11711
 2018-Aug-15 02:34     00 59 44.729969 +09 34 30.72703
 2018-Aug-15 02:35     00 59 44.799664 +09 34 31.33694
 2018-Aug-15 02:36     00 59 44.869313 +09 34 31.94684
 2018-Aug-15 02:37     00 59 44.938916 +09 34 32.55672
 2018-Aug-15 02:38     00 59 45.008474 +09 34 33.16659
 2018-Aug-15 02:39     00 59 45.077986 +09 34 33.77644
 2018-Aug-15 02:40     00 59 45.147452 +09 34 34.38628
 2018-Aug-15 02:41     00 59 45.216873 +09 34 34.99610
 2018-Aug-15 02:42     00 59 45.286248 +09 34 35.60591
 2018-Aug-15 02:43     00 59 45.355577 +09 34 36.21570
 2018-Aug-15 02:44     00 59 45.424862 +09 34 36.82547
 2018-Aug-15 02:45     00 59 45.494100 +09 34 37.43522
 2018-Aug-15 02:46     00 59 45.563293 +09 34 38.04496
 2018-Aug-15 02:47     00 59 45.632441 +09 34 38.65467
 2018-Aug-15 02:48     00 59 45.701544 +09 34 39.26437
 2018-Aug-15 02:49     00 59 45.770601 +09 34 39.87405
 2018-Aug-15 02:50     00 59 45.839612 +09 34 40.48370
 2018-Aug-15 02:51     00 59 45.908579 +09 34 41.09334
 2018-Aug-15 02:52     00 59 45.977500 +09 34 41.70295
 2018-Aug-15 02:53     00 59 46.046376 +09 34 42.31254
 2018-Aug-15 02:54     00 59 46.115207 +09 34 42.92211
 2018-Aug-15 02:55     00 59 46.183992 +09 34 43.53166
 2018-Aug-15 02:56     00 59 46.252733 +09 34 44.14118
 2018-Aug-15 02:57     00 59 46.321428 +09 34 44.75068
 2018-Aug-15 02:58     00 59 46.390078 +09 34 45.36016
 2018-Aug-15 02:59     00 59 46.458684 +09 34 45.96961
 2018-Aug-15 03:00     00 59 46.527244 +09 34 46.57903
 2018-Aug-15 03:01     00 59 46.595760 +09 34 47.18843
 2018-Aug-15 03:02     00 59 46.664230 +09 34 47.79780
 2018-Aug-15 03:03     00 59 46.732656 +09 34 48.40715
 2018-Aug-15 03:04     00 59 46.801037 +09 34 49.01647
 2018-Aug-15 03:05     00 59 46.869373 +09 34 49.62576
 2018-Aug-15 03:06     00 59 46.937664 +09 34 50.23502
 2018-Aug-15 03:07     00 59 47.005911 +09 34 50.84426
 2018-Aug-15 03:08     00 59 47.074113 +09 34 51.45346
 2018-Aug-15 03:09     00 59 47.142271 +09 34 52.06264
 2018-Aug-15 03:10     00 59 47.210384 +09 34 52.67178
 2018-Aug-15 03:11     00 59 47.278453 +09 34 53.28090
 2018-Aug-15 03:12     00 59 47.346477 +09 34 53.88998
 2018-Aug-15 03:13     00 59 47.414457 +09 34 54.49904
 2018-Aug-15 03:14     00 59 47.482392 +09 34 55.10806
 2018-Aug-15 03:15     00 59 47.550284 +09 34 55.71705
 2018-Aug-15 03:16     00 59 47.618131 +09 34 56.32600
 2018-Aug-15 03:17     00 59 47.685934 +09 34 56.93492
 2018-Aug-15 03:18     00 59 47.753693 +09 34 57.54381
 2018-Aug-15 03:19     00 59 47.821408 +09 34 58.15266
 2018-Aug-15 03:20     00 59 47.889078 +09 34 58.76148
 2018-Aug-15 03:21     00 59 47.956705 +09 34 59.37026
 2018-Aug-15 03:22     00 59 48.024288 +09 34 59.97901
 2018-Aug-15 03:23     00 59 48.091828 +09 35 00.58772
 2018-Aug-15 03:24     00 59 48.159323 +09 35 01.19640
 2018-Aug-15 03:25     00 59 48.226775 +09 35 01.80503
 2018-Aug-15 03:26     00 59 48.294183 +09 35 02.41363
 2018-Aug-15 03:27     00 59 48.361548 +09 35 03.02219
 2018-Aug-15 03:28     00 59 48.428869 +09 35 03.63072
 2018-Aug-15 03:29     00 59 48.496147 +09 35 04.23920
 2018-Aug-15 03:30     00 59 48.563381 +09 35 04.84764
 2018-Aug-15 03:31     00 59 48.630572 +09 35 05.45605
 2018-Aug-15 03:32     00 59 48.697720 +09 35 06.06441
 2018-Aug-15 03:33     00 59 48.764825 +09 35 06.67273
 2018-Aug-15 03:34     00 59 48.831886 +09 35 07.28101
 2018-Aug-15 03:35     00 59 48.898905 +09 35 07.88925
 2018-Aug-15 03:36     00 59 48.965880 +09 35 08.49745
 2018-Aug-15 03:37     00 59 49.032813 +09 35 09.10560
 2018-Aug-15 03:38     00 59 49.099703 +09 35 09.71371
 2018-Aug-15 03:39     00 59 49.166550 +09 35 10.32178
 2018-Aug-15 03:40     00 59 49.233355 +09 35 10.92980
 2018-Aug-15 03:41     00 59 49.300117 +09 35 11.53778
 2018-Aug-15 03:42     00 59 49.366836 +09 35 12.14571
 2018-Aug-15 03:43     00 59 49.433513 +09 35 12.75359
 2018-Aug-15 03:44     00 59 49.500148 +09 35 13.36143
 2018-Aug-15 03:45     00 59 49.566740 +09 35 13.96923
 2018-Aug-15 03:46     00 59 49.633290 +09 35 14.57698
 2018-Aug-15 03:47     00 59 49.699798 +09 35 15.18467
 2018-Aug-15 03:48     00 59 49.766264 +09 35 15.79233
 2018-Aug-15 03:49     00 59 49.832688 +09 35 16.39993
 2018-Aug-15 03:50     00 59 49.899070 +09 35 17.00748
 2018-Aug-15 03:51     00 59 49.965410 +09 35 17.61499
 2018-Aug-15 03:52     00 59 50.031709 +09 35 18.22244
 2018-Aug-15 03:53     00 59 50.097966 +09 35 18.82985
 2018-Aug-15 03:54     00 59 50.164181 +09 35 19.43720
 2018-Aug-15 03:55     00 59 50.230355 +09 35 20.04451
 2018-Aug-15 03:56     00 59 50.296488 +09 35 20.65176
 2018-Aug-15 03:57     00 59 50.362579 +09 35 21.25896
 2018-Aug-15 03:58     00 59 50.428629 +09 35 21.86611
 2018-Aug-15 03:59     00 59 50.494638 +09 35 22.47320
 2018-Aug-15 04:00     00 59 50.560606 +09 35 23.08024
 2018-Aug-15 04:01     00 59 50.626533 +09 35 23.68723
 2018-Aug-15 04:02     00 59 50.692419 +09 35 24.29416
 2018-Aug-15 04:03     00 59 50.758264 +09 35 24.90104
 2018-Aug-15 04:04     00 59 50.824069 +09 35 25.50787
 2018-Aug-15 04:05     00 59 50.889833 +09 35 26.11464
 2018-Aug-15 04:06     00 59 50.955557 +09 35 26.72135
 2018-Aug-15 04:07     00 59 51.021240 +09 35 27.32800
 2018-Aug-15 04:08     00 59 51.086883 +09 35 27.93460
 2018-Aug-15 04:09     00 59 51.152486 +09 35 28.54115
 2018-Aug-15 04:10     00 59 51.218049 +09 35 29.14763
 2018-Aug-15 04:11     00 59 51.283571 +09 35 29.75406
 2018-Aug-15 04:12     00 59 51.349054 +09 35 30.36042
 2018-Aug-15 04:13     00 59 51.414497 +09 35 30.96673
 2018-Aug-15 04:14     00 59 51.479901 +09 35 31.57298
 2018-Aug-15 04:15     00 59 51.545264 +09 35 32.17917
 2018-Aug-15 04:16     00 59 51.610589 +09 35 32.78530
 2018-Aug-15 04:17     00 59 51.675874 +09 35 33.39137
 2018-Aug-15 04:18     00 59 51.741119 +09 35 33.99737
 2018-Aug-15 04:19     00 59 51.806326 +09 35 34.60332
 2018-Aug-15 04:20     00 59 51.871493 +09 35 35.20920
 2018-Aug-15 04:21     00 59 51.936622 +09 35 35.81502
 2018-Aug-15 04:22     00 59 52.001711 +09 35 36.42078
 2018-Aug-15 04:23     00 59 52.066762 +09 35 37.02648
 2018-Aug-15 04:24     00 59 52.131774 +09 35 37.63211
 2018-Aug-15 04:25     00 59 52.196748 +09 35 38.23768
 2018-Aug-15 04:26     00 59 52.261683 +09 35 38.84318
 2018-Aug-15 04:27     00 59 52.326580 +09 35 39.44862
 2018-Aug-15 04:28     00 59 52.391438 +09 35 40.05399
 2018-Aug-15 04:29     00 59 52.456259 +09 35 40.65930
 2018-Aug-15 04:30     00 59 52.521041 +09 35 41.26454
 2018-Aug-15 04:31     00 59 52.585786 +09 35 41.86971
 2018-Aug-15 04:32     00 59 52.650493 +09 35 42.47482
 2018-Aug-15 04:33     00 59 52.715162 +09 35 43.07986
 2018-Aug-15 04:34     00 59 52.779794 +09 35 43.68483
